NORAD_CAT_ID,OBJECT_NAME,OBJECT_TYPE,EPOCH,MEAN_MOTION,ECCENTRICITY,INCLINATION,RA_OF_ASC_NODE,ARG_OF_PERICENTER,MEAN_ANOMALY,BSTAR,MEAN_MOTION_DOT,MEAN_MOTION_DDOT,TLE_LINE0,TLE_LINE1,TLE_LINE2,SEMIMAJOR_AXIS,PERIOD,APOGEE,PERIGEE,DECAYED
54178.0,STARLINK-5164,PAYLOAD,2024-01-26 19:29:29,15.08840549,0.0001196,53.2157,233.3826,98.4633,261.6495,0.00014037,1.947e-05,0.0,0 STARLINK-5164,1 54178U 22141X   24026.81215129  .00001947  00000-0  14037-3 0  9997,2 54178  53.2157 233.3826 0001196  98.4633 261.6495 15.08840549 69188,6917.879,95.438,540.571,538.916,0.0
54178.0,STARLINK-5164,PAYLOAD,2024-01-27 12:58:44,15.0884382,0.0001152,53.2155,230.1126,76.5837,283.5284,6.1618e-05,6.93e-06,0.0,0 STARLINK-5164,1 54178U 22141X   24027.54079399  .00000693  00000-0  61618-4 0  9990,2 54178  53.2155 230.1126 0001152  76.5837 283.5284 15.08843820 69295,6917.869,95.437,540.531,538.937,0.0
54178.0,STARLINK-5164,PAYLOAD,2024-01-27 19:20:17,15.08841696,0.0001209,53.2154,228.9218,68.6475,291.4647,4.7341e-05,4.66e-06,0.0,0 STARLINK-5164,1 54178U 22141X   24027.80575587  .00000466  00000-0  47341-4 0  9994,2 54178  53.2154 228.9218 0001209  68.6475 291.4647 15.08841696 69339,6917.875,95.437,540.577,538.904,0.0
54178.0,STARLINK-5164,PAYLOAD,2024-01-27 20:55:40,15.08841263,0.0001227,53.2159,228.6246,74.7555,285.3573,4.2417e-05,3.87e-06,0.0,0 STARLINK-5164,1 54178U 22141X   24027.87199555  .00000387  00000-0  42417-4 0  9999,2 54178  53.2159 228.6246 0001227  74.7555 285.3573 15.08841263 69340,6917.877,95.437,540.59,538.893,0.0
54178.0,STARLINK-5164,PAYLOAD,2024-01-28 12:49:31,15.08841111,0.0001488,53.2163,225.6515,65.4299,294.6849,1.2001e-05,-9.7e-07,0.0,0 STARLINK-5164,1 54178U 22141X   24028.53439716 -.00000097  00000-0  12001-4 0  9994,2 54178  53.2163 225.6515 0001488  65.4299 294.6849 15.08841111 69444,6917.877,95.437,540.771,538.713,0.0
54178.0,STARLINK-5164,PAYLOAD,2024-01-28 20:46:27,15.08841718,0.0001486,53.2163,224.1646,65.9163,294.1984,2.1928e-06,-2.53e-06,0.0,0 STARLINK-5164,1 54178U 22141X   24028.86559660 -.00000253  00000-0  21928-5 0  9994,2 54178  53.2163 224.1646 0001486  65.9163 294.1984 15.08841718 69499,6917.875,95.437,540.768,538.712,0.0
54178.0,STARLINK-5164,PAYLOAD,2024-01-28 22:21:50,15.0884362,0.00014,53.216,223.8665,69.2169,290.8973,1.5954e-05,-3.4e-07,0.0,0 STARLINK-5164,1 54178U 22141X   24028.93183439 -.00000034  00000-0  15954-4 0  9997,2 54178  53.2160 223.8665 0001400  69.2169 290.8973 15.08843620 69509,6917.869,95.437,540.703,538.766,0.0
54178.0,STARLINK-5164,PAYLOAD,2024-01-29 12:40:18,15.08842365,0.0001276,53.2157,221.1898,77.0693,283.0442,6.0435e-05,6.74e-06,0.0,0 STARLINK-5164,1 54178U 22141X   24029.52799191  .00000674  00000-0  60435-4 0  9994,2 54178  53.2157 221.1898 0001276  77.0693 283.0442 15.08842365 69593,6917.873,95.437,540.621,538.855,0.0
54178.0,STARLINK-5164,PAYLOAD,2024-01-30 12:31:05,15.08842053,0.0001159,53.2157,216.7283,82.7058,277.4066,3.4842e-05,2.67e-06,0.0,0 STARLINK-5164,1 54178U 22141X   24030.52159180  .00000267  00000-0  34842-4 0  9995,2 54178  53.2157 216.7283 0001159  82.7058 277.4066 15.08842053 69749,6917.874,95.437,540.541,538.937,0.0
54178.0,STARLINK-5164,PAYLOAD,2024-01-30 18:52:38,15.08840422,0.0001102,53.2158,215.5384,89.451,270.6608,1.6683e-05,-2.2e-07,0.0,0 STARLINK-5164,1 54178U 22141X   24030.78655273 -.00000022  00000-0  16683-4 0  9990,2 54178  53.2158 215.5384 0001102  89.4510 270.6608 15.08840422 69783,6917.879,95.438,540.506,538.982,0.0
54178.0,STARLINK-5164,PAYLOAD,2024-02-01 12:12:40,15.08834182,0.0001229,53.2167,207.8084,93.5857,266.5276,2.6167e-05,1.29e-06,0.0,0 STARLINK-5164,1 54178U 22141X   24032.50879826  .00000129  00000-0  26167-4 0  9999,2 54178  53.2167 207.8084 0001229  93.5857 266.5276 15.08834182 70046,6917.898,95.438,540.613,538.913,0.0
54178.0,STARLINK-5164,PAYLOAD,2024-02-02 16:49:36,15.08839153,0.0001161,53.2158,202.4545,86.3357,273.7767,2.644e-05,1.33e-06,0.0,0 STARLINK-5164,1 54178U 22141X   24033.70111727  .00000133  00000-0  26440-4 0  9990,2 54178  53.2158 202.4545 0001161  86.3357 273.7767 15.08839153 70227,6917.883,95.438,540.551,538.945,0.0
54178.0,STARLINK-5164,PAYLOAD,2024-02-02 21:35:45,15.0883968,0.0001147,53.216,201.5623,84.9334,275.1789,2.5059e-05,1.11e-06,0.0,0 STARLINK-5164,1 54178U 22141X   24033.89983672  .00000111  00000-0  25059-4 0  9997,2 54178  53.2160 201.5623 0001147  84.9334 275.1789 15.08839680 70258,6917.881,95.438,540.54,538.953,0.0
54178.0,STARLINK-5164,PAYLOAD,2024-02-03 19:51:10,15.08837746,0.0001496,53.2171,197.3978,107.236,252.8796,1.7435e-05,-1e-07,0.0,0 STARLINK-5164,1 54178U 22141X   24034.82720197 -.00000010  00000-0  17435-4 0  9990,2 54178  53.2171 197.3978 0001496 107.2360 252.8796 15.08837746 70396,6917.887,95.438,540.787,538.717,0.0
54178.0,STARLINK-5164,PAYLOAD,2024-02-04 14:55:47,15.088424,0.0001377,53.2169,193.83,87.5003,272.6147,9.7059e-05,1.257e-05,0.0,0 STARLINK-5164,1 54178U 22141X   24035.62207755  .00001257  00000-0  97059-4 0  9992,2 54178  53.2169 193.8300 0001377  87.5003 272.6147 15.08842400 70512,6917.873,95.437,540.691,538.785,0.0
54178.0,STARLINK-5164,PAYLOAD,2024-02-04 16:31:10,15.08842957,0.0001379,53.2168,193.5326,87.4465,272.6685,0.00010156,1.329e-05,0.0,0 STARLINK-5164,1 54178U 22141X   24035.68831704  .00001329  00000-0  10156-3 0  9997,2 54178  53.2168 193.5326 0001379  87.4465 272.6685 15.08842957 70524,6917.871,95.437,540.69,538.782,0.0
54178.0,STARLINK-5164,PAYLOAD,2024-02-05 14:46:34,15.08841359,0.0001272,53.216,189.3709,86.7129,273.4009,3.1963e-05,2.21e-06,0.0,0 STARLINK-5164,1 54178U 22141X   24036.61568036  .00000221  00000-0  31963-4 0  9996,2 54178  53.2160 189.3709 0001272  86.7129 273.4009 15.08841359 70664,6917.876,95.437,540.621,538.861,0.0
54178.0,STARLINK-5164,PAYLOAD,2024-02-05 16:21:57,15.08841967,0.0001281,53.2161,189.0736,86.4756,273.6383,3.6663e-05,2.96e-06,0.0,0 STARLINK-5164,1 54178U 22141X   24036.68191979  .00000296  00000-0  36663-4 0  9995,2 54178  53.2161 189.0736 0001281  86.4756 273.6383 15.08841967 70678,6917.874,95.437,540.626,538.853,0.0
54178.0,STARLINK-5164,PAYLOAD,2024-02-06 14:37:21,15.08843522,0.0001439,53.217,184.9112,84.3539,275.7618,1.1937e-05,-9.8e-07,0.0,0 STARLINK-5164,1 54178U 22141X   24037.60927887 -.00000098  00000-0  11937-4 0  9991,2 54178  53.2170 184.9112 0001439  84.3539 275.7618 15.08843522 70810,6917.87,95.437,540.73,538.739,0.0
54178.0,STARLINK-5164,PAYLOAD,2024-02-06 16:12:44,15.08843635,0.0001658,53.2162,184.6152,60.8086,299.3072,3.7804e-05,3.14e-06,0.0,0 STARLINK-5164,1 54178U 22141X   24037.67551917  .00000314  00000-0  37804-4 0  9996,2 54178  53.2162 184.6152 0001658  60.8086 299.3072 15.08843635 70823,6917.869,95.437,540.881,538.587,0.0
54178.0,STARLINK-5164,PAYLOAD,2024-02-07 09:41:59,15.08838755,0.0001666,53.2173,181.3502,70.4253,289.6919,2.3964e-05,9.3e-07,0.0,0 STARLINK-5164,1 54178U 22141X   24038.40416263  .00000093  00000-0  23964-4 0  9998,2 54178  53.2173 181.3502 0001666  70.4253 289.6919 15.08838755 70931,6917.884,95.438,540.902,538.597,0.0
54178.0,STARLINK-5164,PAYLOAD,2024-02-07 14:28:09,15.08836342,0.0001559,53.2179,180.4534,82.2349,277.882,2.6659e-06,-2.46e-06,0.0,0 STARLINK-5164,1 54178U 22141X   24038.60288420 -.00000246  00000-0  26659-5 0  9998,2 54178  53.2179 180.4534 0001559  82.2349 277.8820 15.08836342 70963,6917.892,95.438,540.835,538.678,0.0
54178.0,STARLINK-5164,PAYLOAD,2024-02-07 16:03:32,15.08841685,0.0001485,53.2176,180.1539,84.5917,275.5245,-9.078e-06,-4.32e-06,0.0,0 STARLINK-5164,1 54178U 22141X   24038.66912062 -.00000432  00000-0 -90780-5 0  9994,2 54178  53.2176 180.1539 0001485  84.5917 275.5245 15.08841685 70979,6917.875,95.437,540.768,538.713,0.0
54178.0,STARLINK-5164,PAYLOAD,2024-02-08 14:18:56,15.08842249,0.0001438,53.2166,175.9902,96.8184,263.2972,-6.689e-06,-3.94e-06,0.0,0 STARLINK-5164,1 54178U 22141X   24039.59648178 -.00000394  00000-0 -66890-5 0  9993,2 54178  53.2166 175.9902 0001438  96.8184 263.2972 15.08842249 71119,6917.874,95.437,540.733,538.744,0.0
54178.0,STARLINK-5164,PAYLOAD,2024-02-08 15:54:18,15.08843999,0.000149,53.217,175.693,97.9825,262.1336,1.7998e-05,-2e-08,0.0,0 STARLINK-5164,1 54178U 22141X   24039.66271979 -.00000002  00000-0  17998-4 0  9991,2 54178  53.2170 175.6930 0001490  97.9825 262.1336 15.08843999 71120,6917.868,95.437,540.764,538.702,0.0
54178.0,STARLINK-5164,PAYLOAD,2024-02-09 14:09:43,15.08837614,0.0001498,53.2172,171.5284,97.0876,263.0286,2.9709e-05,1.85e-06,0.0,0 STARLINK-5164,1 54178U 22141X   24040.59008494  .00000185  00000-0  29709-4 0  9999,2 54178  53.2172 171.5284 0001498  97.0876 263.0286 15.08837614 71260,6917.888,95.438,540.789,538.716,0.0
54178.0,STARLINK-5164,PAYLOAD,2024-02-10 14:00:30,15.08838622,0.0001554,53.2173,167.0694,91.6294,268.4876,1.5018e-05,-4.9e-07,0.0,0 STARLINK-5164,1 54178U 22141X   24041.58368837 -.00000049  00000-0  15018-4 0  9997,2 54178  53.2173 167.0694 0001554  91.6294 268.4876 15.08838622 71414,6917.885,95.438,540.825,538.675,0.0
54178.0,STARLINK-5164,PAYLOAD,2024-02-10 15:35:53,15.08843616,0.0001626,53.2166,166.771,86.3878,273.73,1.3471e-05,-7.4e-07,0.0,0 STARLINK-5164,1 54178U 22141X   24041.64992565 -.00000074  00000-0  13471-4 0  9994,2 54178  53.2166 166.7710 0001626  86.3878 273.7300 15.08843616 71421,6917.869,95.437,540.859,538.609,0.0
54178.0,STARLINK-5164,PAYLOAD,2024-02-11 13:51:17,15.08832162,0.0001638,53.2171,162.6084,62.1075,298.0082,0.00017133,2.439e-05,0.0,0 STARLINK-5164,1 54178U 22141X   24042.57728897  .00002439  00000-0  17133-3 0  9996,2 54178  53.2171 162.6084 0001638  62.1075 298.0082 15.08832162 71566,6917.904,95.438,540.902,538.636,0.0
54178.0,STARLINK-5164,PAYLOAD,2024-02-11 15:26:40,15.08857653,0.0001526,53.2171,162.3097,79.8432,280.2732,-0.00010725,-1.995e-05,0.0,0 STARLINK-5164,1 54178U 22141X   24042.64352155 -.00001995  00000-0 -10725-3 0  9992,2 54178  53.2171 162.3097 0001526  79.8432 280.2732 15.08857653 71573,6917.826,95.436,540.747,538.636,0.0
